{"type": "FeatureCollection", "features": [ {"type": "Feature", "properties": {"norad_id": 39019, "name": "PLEIADES 1B", "group": "resource", "lat": 62.70790368187032, "lon": 52.68828789126254, "alt_km": 690.9499448478036, "timestamp": "2025-12-22T08:58:20.000214+00:00", "meta": {"OBJECT_NAME": "PLEIADES 1B", "OBJECT_ID": "2012-068A", "EPOCH": "2025-12-22T05:23:15.357120", "MEAN_MOTION": 14.58559996, "ECCENTRICITY": 0.0001154, "INCLINATION": 98.179, "RA_OF_ASC_NODE": 68.7267, "ARG_OF_PERICENTER": 86.105, "MEAN_ANOMALY": 274.0281, "EPHEMERIS_TYPE": 0, "CLASSIFICATION_TYPE": "U", "NORAD_CAT_ID": 39019, "ELEMENT_SET_NO": 999, "REV_AT_EPOCH": 69505, "BSTAR": 3.6014e-05, "MEAN_MOTION_DOT": 1.22e-06, "MEAN_MOTION_DDOT": 0}, "tle": {"line1": "1 39019U 12068A   25356.22448330  .00000122  00000+0  36014-4 0  9998", "line2": "2 39019  98.1790  68.7267 0001154  86.1050 274.0281 14.58559996695055"}}, "geometry": {"type": "Point", "coordinates": [52.68828789126254, 62.70790368187032]}}, {"type": "Feature", "properties": {"norad_id": 39030, "name": "GOKTURK 2", "group": "resource", "lat": 40.78000934098667, "lon": 24.24471081047503, "alt_km": 640.1970921843167, "timestamp": "2025-12-22T08:58:20.000224+00:00", "meta": {"OBJECT_NAME": "GOKTURK 2", "OBJECT_ID": "2012-073A", "EPOCH": "2025-12-22T03:27:44.882208", "MEAN_MOTION": 14.75303699, "ECCENTRICITY": 0.0001331, "INCLINATION": 97.6884, "RA_OF_ASC_NODE": 197.335, "ARG_OF_PERICENTER": 106.9456, "MEAN_ANOMALY": 253.19, "EPHEMERIS_TYPE": 0, "CLASSIFICATION_TYPE": "U", "NORAD_CAT_ID": 39030, "ELEMENT_SET_NO": 999, "REV_AT_EPOCH": 69840, "BSTAR": 0.00010993, "MEAN_MOTION_DOT": 6.98e-06, "MEAN_MOTION_DDOT": 0}, "tle": {"line1": "1 39030U 12073A   25356.14426947  .00000698  00000+0  10993-3 0  9993", "line2": "2 39030  97.6884 197.3350 0001331 106.9456 253.1900 14.75303699698400"}}, "geometry": {"type": "Point", "coordinates": [24.24471081047503, 40.78000934098667]}}, {"type": "Feature", "properties": {"norad_id": 39084, "name": "LANDSAT 8", "group": "resource", "lat": -4.061583415985881, "lon": -116.28253057296727, "alt_km": 706.0502920131421, "timestamp": "2025-12-22T08:58:20.000235+00:00", "meta": {"OBJECT_NAME": "LANDSAT 8", "OBJECT_ID": "2013-008A", "EPOCH": "2025-12-22T03:11:11.061888", "MEAN_MOTION": 14.57111793, "ECCENTRICITY": 0.0001063, "INCLINATION": 98.2059, "RA_OF_ASC_NODE": 64.0671, "ARG_OF_PERICENTER": 91.6412, "MEAN_ANOMALY": 268.4908, "EPHEMERIS_TYPE": 0, "CLASSIFICATION_TYPE": "U", "NORAD_CAT_ID": 39084, "ELEMENT_SET_NO": 999, "REV_AT_EPOCH": 67211, "BSTAR": 9.989e-05, "MEAN_MOTION_DOT": 4.05e-06, "MEAN_MOTION_DDOT": 0}, "tle": {"line1": "1 39084U 13008A   25356.13276692  .00000405  00000+0  99890-4 0  9990", "line2": "2 39084  98.2059  64.0671 0001063  91.6412 268.4908 14.57111793672119"}}, "geometry": {"type": "Point", "coordinates": [-116.28253057296727, -4.061583415985881]}}, {"type": "Feature", "properties": {"norad_id": 39086, "name": "SARAL", "group": "resource", "lat": 45.63531358028838, "lon": 171.33019897799625, "alt_km": 777.0098694474273, "timestamp": "2025-12-22T08:58:20.000245+00:00", "meta": {"OBJECT_NAME": "SARAL", "OBJECT_ID": "2013-009A", "EPOCH": "2025-12-22T03:43:43.580928", "MEAN_MOTION": 14.327602, "ECCENTRICITY": 0.0002963, "INCLINATION": 98.5502, "RA_OF_ASC_NODE": 179.9629, "ARG_OF_PERICENTER": 90.9355, "MEAN_ANOMALY": 269.2169, "EPHEMERIS_TYPE": 0, "CLASSIFICATION_TYPE": "U", "NORAD_CAT_ID": 39086, "ELEMENT_SET_NO": 999, "REV_AT_EPOCH": 67025, "BSTAR": 5.9033e-05, "MEAN_MOTION_DOT": 1.17e-06, "MEAN_MOTION_DDOT": 0}, "tle": {"line1": "1 39086U 13009A   25356.15536552  .00000117  00000+0  59033-4 0  9994", "line2": "2 39086  98.5502 179.9629 0002963  90.9355 269.2169 14.32760200670251"}}, "geometry": {"type": "Point", "coordinates": [171.33019897799625, 45.63531358028838]}}, {"type": "Feature", "properties": {"norad_id": 39150, "name": "GAOFEN-1", "group": "resource", "lat": -76.8515565107949, "lon": -149.7825274400544, "alt_km": 658.4383293097571, "timestamp": "2025-12-22T08:58:20.000256+00:00", "meta": {"OBJECT_NAME": "GAOFEN-1", "OBJECT_ID": "2013-018A", "EPOCH": "2025-12-22T04:32:56.556672", "MEAN_MOTION": 14.76495199, "ECCENTRICITY": 0.0018458, "INCLINATION": 97.9321, "RA_OF_ASC_NODE": 66.6819, "ARG_OF_PERICENTER": 114.3575, "MEAN_ANOMALY": 245.9564, "EPHEMERIS_TYPE": 0, "CLASSIFICATION_TYPE": "U", "NORAD_CAT_ID": 39150, "ELEMENT_SET_NO": 999, "REV_AT_EPOCH": 68212, "BSTAR": 9.0578e-05, "MEAN_MOTION_DOT": 5.81e-06, "MEAN_MOTION_DDOT": 0}, "tle": {"line1": "1 39150U 13018A   25356.18954348  .00000581  00000+0  90578-4 0  9990", "line2": "2 39150  97.9321  66.6819 0018458 114.3575 245.9564 14.76495199682128"}}, "geometry": {"type": "Point", "coordinates": [-149.7825274400544, -76.8515565107949]}}, {"type": "Feature", "properties": {"norad_id": 39160, "name": "VNREDSAT 1", "group": "resource", "lat": -77.02575835851938, "lon": 88.57462646431016, "alt_km": 685.4256714771127, "timestamp": "2025-12-22T08:58:20.000266+00:00", "meta": {"OBJECT_NAME": "VNREDSAT 1", "OBJECT_ID": "2013-021B", "EPOCH": "2025-12-22T04:25:04.122336", "MEAN_MOTION": 14.64934875, "ECCENTRICITY": 0.0001196, "INCLINATION": 97.9363, "RA_OF_ASC_NODE": 51.128, "ARG_OF_PERICENTER": 83.8919, "MEAN_ANOMALY": 276.2421, "EPHEMERIS_TYPE": 0, "CLASSIFICATION_TYPE": "U", "NORAD_CAT_ID": 39160, "ELEMENT_SET_NO": 999, "REV_AT_EPOCH": 67437, "BSTAR": 6.0077e-05, "MEAN_MOTION_DOT": 2.76e-06, "MEAN_MOTION_DDOT": 0}, "tle": {"line1": "1 39160U 13021B   25356.18407549  .00000276  00000+0  60077-4 0  9993", "line2": "2 39160  97.9363  51.1280 0001196  83.8919 276.2421 14.64934875674372"}}, "geometry": {"type": "Point", "coordinates": [88.57462646431016, -77.02575835851938]}}, {"type": "Feature", "properties": {"norad_id": 39227, "name": "ARIRANG-5 (KOMPSAT-5)", "group": "resource", "lat": -68.9116046273285, "lon": -159.15878610620464, "alt_km": 560.7596158041042, "timestamp": "2025-12-22T08:58:20.000276+00:00", "meta": {"OBJECT_NAME": "ARIRANG-5 (KOMPSAT-5)", "OBJECT_ID": "2013-042A", "EPOCH": "2025-12-22T04:29:44.109312", "MEAN_MOTION": 15.04543808, "ECCENTRICITY": 0.0003437, "INCLINATION": 97.6157, "RA_OF_ASC_NODE": 180.356, "ARG_OF_PERICENTER": 34.2511, "MEAN_ANOMALY": 325.8936, "EPHEMERIS_TYPE": 0, "CLASSIFICATION_TYPE": "U", "NORAD_CAT_ID": 39227, "ELEMENT_SET_NO": 999, "REV_AT_EPOCH": 67724, "BSTAR": 0.0001128, "MEAN_MOTION_DOT": 1.52e-05, "MEAN_MOTION_DDOT": 0}, "tle": {"line1": "1 39227U 13042A   25356.18731608  .00001520  00000+0  11280-3 0  9990", "line2": "2 39227  97.6157 180.3560 0003437  34.2511 325.8936 15.04543808677246"}}, "geometry": {"type": "Point", "coordinates": [-159.15878610620464, -68.9116046273285]}}, {"type": "Feature", "properties": {"norad_id": 39418, "name": "SKYSAT-A", "group": "resource", "lat": -8.993489542117212, "lon": -134.89050754629318, "alt_km": 520.864123687501, "timestamp": "2025-12-22T08:58:20.000286+00:00", "meta": {"OBJECT_NAME": "SKYSAT-A", "OBJECT_ID": "2013-066C", "EPOCH": "2025-12-22T01:47:01.235040", "MEAN_MOTION": 15.11668448, "ECCENTRICITY": 0.0021384, "INCLINATION": 97.4091, "RA_OF_ASC_NODE": 45.9992, "ARG_OF_PERICENTER": 202.7866, "MEAN_ANOMALY": 157.2418, "EPHEMERIS_TYPE": 0, "CLASSIFICATION_TYPE": "U", "NORAD_CAT_ID": 39418, "ELEMENT_SET_NO": 999, "REV_AT_EPOCH": 66171, "BSTAR": 0.00020685, "MEAN_MOTION_DOT": 3.473e-05, "MEAN_MOTION_DDOT": 0}, "tle": {"line1": "1 39418U 13066C   25356.07431985  .00003473  00000+0  20685-3 0  9999", "line2": "2 39418  97.4091  45.9992 0021384 202.7866 157.2418 15.11668448661717"}}, "geometry": {"type": "Point", "coordinates": [-134.89050754629318, -8.993489542117212]}}, {"type": "Feature", "properties": {"norad_id": 39419, "name": "DUBAISAT-2", "group": "resource", "lat": -38.66100901736138, "lon": 160.47953607411392, "alt_km": 544.5261179448398, "timestamp": "2025-12-22T08:58:20.000296+00:00", "meta": {"OBJECT_NAME": "DUBAISAT-2", "OBJECT_ID": "2013-066D", "EPOCH": "2025-12-22T04:49:09.900192", "MEAN_MOTION": 15.08436735, "ECCENTRICITY": 0.0010052, "INCLINATION": 97.4442, "RA_OF_ASC_NODE": 346.3163, "ARG_OF_PERICENTER": 284.4658, "MEAN_ANOMALY": 75.5455, "EPHEMERIS_TYPE": 0, "CLASSIFICATION_TYPE": "U", "NORAD_CAT_ID": 39419, "ELEMENT_SET_NO": 999, "REV_AT_EPOCH": 65969, "BSTAR": 0.00027083, "MEAN_MOTION_DOT": 4.159e-05, "MEAN_MOTION_DDOT": 0}, "tle": {"line1": "1 39419U 13066D   25356.20080903  .00004159  00000+0  27083-3 0  9996", "line2": "2 39419  97.4442 346.3163 0010052 284.4658  75.5455 15.08436735659697"}}, "geometry": {"type": "Point", "coordinates": [160.47953607411392, -38.66100901736138]}}, {"type": "Feature", "properties": {"norad_id": 39574, "name": "GPM-CORE", "group": "resource", "lat": -15.423733564052313, "lon": 7.825830073382808, "alt_km": 432.46989607294836, "timestamp": "2025-12-22T08:58:20.000306+00:00", "meta": {"OBJECT_NAME": "GPM-CORE", "OBJECT_ID": "2014-009C", "EPOCH": "2025-12-22T01:54:21.964032", "MEAN_MOTION": 15.44599645, "ECCENTRICITY": 0.000927, "INCLINATION": 64.9719, "RA_OF_ASC_NODE": 181.405, "ARG_OF_PERICENTER": 248.9287, "MEAN_ANOMALY": 111.0863, "EPHEMERIS_TYPE": 0, "CLASSIFICATION_TYPE": "U", "NORAD_CAT_ID": 39574, "ELEMENT_SET_NO": 999, "REV_AT_EPOCH": 67045, "BSTAR": 0.00017264, "MEAN_MOTION_DOT": 7.838e-05, "MEAN_MOTION_DDOT": 0}, "tle": {"line1": "1 39574U 14009C   25356.07942088  .00007838  00000+0  17264-3 0  9999", "line2": "2 39574  64.9719 181.4050 0009270 248.9287 111.0863 15.44599645670457"}}, "geometry": {"type": "Point", "coordinates": [7.825830073382808, -15.423733564052313]}}]}